{
  "norad_id": 48405,
  "name": "STARLINK-2570",
  "history": [
    {
      "epoch": "2026-04-15T20:39:58.266720Z",
      "apogee_km": 471.47532654885345,
      "perigee_km": 469.94392444339337,
      "latitude_deg": 1.4831058059232171e-05,
      "longitude_deg": 6.13174757914869,
      "height_km": 471.4045730352889,
      "semi_major_axis_km": 6848.846625496123,
      "eccentricity": 0.0001118,
      "inclination_deg": 53.1608,
      "raan_deg": 160.1416,
      "arg_perigee_deg": 74.5434,
      "mean_anomaly_deg": 285.5691,
      "mean_motion_rev_day": 15.31710188
    },
    {
      "epoch": "2026-04-16T10:45:37.769184Z",
      "apogee_km": 471.4866188570968,
      "perigee_km": 470.02506512461696,
      "latitude_deg": -4.326682690088988e-06,
      "longitude_deg": 151.40450824273086,
      "height_km": 471.48005039660865,
      "semi_major_axis_km": 6848.892841990857,
      "eccentricity": 0.0001067,
      "inclination_deg": 53.1607,
      "raan_deg": 157.4078,
      "arg_perigee_deg": 76.1571,
      "mean_anomaly_deg": 283.9549,
      "mean_motion_rev_day": 15.31694684
    },
    {
      "epoch": "2026-04-17T19:38:47.724288Z",
      "apogee_km": 471.5162324694402,
      "perigee_km": 469.9240101658761,
      "latitude_deg": 1.3413322812371449e-05,
      "longitude_deg": 10.38285976947472,
      "height_km": 471.3525818597559,
      "semi_major_axis_km": 6848.857121317657,
      "eccentricity": 0.00011624,
      "inclination_deg": 53.1609,
      "raan_deg": 151.0282,
      "arg_perigee_deg": 70.4395,
      "mean_anomaly_deg": 289.6732,
      "mean_motion_rev_day": 15.31706667
    },
    {
      "epoch": "2026-04-18T19:08:11.826240Z",
      "apogee_km": 472.0757209929916,
      "perigee_km": 469.311532951946,
      "latitude_deg": 3.98366847101412e-06,
      "longitude_deg": 12.50992696357629,
      "height_km": 470.94905801776423,
      "semi_major_axis_km": 6848.830626972469,
      "eccentricity": 0.0002018,
      "inclination_deg": 53.1613,
      "raan_deg": 146.4704,
      "arg_perigee_deg": 62.2904,
      "mean_anomaly_deg": 297.8302,
      "mean_motion_rev_day": 15.31715555
    },
    {
      "epoch": "2026-04-19T02:57:59.229216Z",
      "apogee_km": 471.3319577921775,
      "perigee_km": 469.8192141561867,
      "latitude_deg": 2.7965934044361967e-05,
      "longitude_deg": -106.7782275907712,
      "height_km": 471.00649437192794,
      "semi_major_axis_km": 6848.712585974182,
      "eccentricity": 0.00011044,
      "inclination_deg": 53.163,
      "raan_deg": 144.9513,
      "arg_perigee_deg": 51.7136,
      "mean_anomaly_deg": 308.3965,
      "mean_motion_rev_day": 15.31755155
    },
    {
      "epoch": "2026-04-20T08:43:17.314176Z",
      "apogee_km": 471.20857927587895,
      "perigee_km": 470.6244919903602,
      "latitude_deg": 1.027357744275196e-05,
      "longitude_deg": 159.901807927917,
      "height_km": 471.7497918830965,
      "semi_major_axis_km": 6849.053535633119,
      "eccentricity": 4.264e-05,
      "inclination_deg": 53.1558,
      "raan_deg": 139.1787,
      "arg_perigee_deg": 76.9285,
      "mean_anomaly_deg": 283.1764,
      "mean_motion_rev_day": 15.31640779
    },
    {
      "epoch": "2026-04-21T20:44:20.793120Z",
      "apogee_km": 471.61321686504834,
      "perigee_km": 469.8996237312904,
      "latitude_deg": 5.372726837055898e-05,
      "longitude_deg": -28.826750596652936,
      "height_km": 471.81218755096575,
      "semi_major_axis_km": 6848.893420298169,
      "eccentricity": 0.0001251,
      "inclination_deg": 53.1597,
      "raan_deg": 132.1938,
      "arg_perigee_deg": 100.5652,
      "mean_anomaly_deg": 259.5491,
      "mean_motion_rev_day": 15.3169449
    },
    {
      "epoch": "2026-04-22T18:39:48.097728Z",
      "apogee_km": 471.61680476110814,
      "perigee_km": 469.90047151419003,
      "latitude_deg": -7.1551273533391595e-06,
      "longitude_deg": -2.844564408197052,
      "height_km": 471.7962754641381,
      "semi_major_axis_km": 6848.895638137648,
      "eccentricity": 0.0001253,
      "inclination_deg": 53.1595,
      "raan_deg": 127.9402,
      "arg_perigee_deg": 99.3207,
      "mean_anomaly_deg": 260.7936,
      "mean_motion_rev_day": 15.31693746
    },
    {
      "epoch": "2026-04-23T00:55:38.602272Z",
      "apogee_km": 471.5377955045933,
      "perigee_km": 469.95967525344804,
      "latitude_deg": -3.1406849727681797e-05,
      "longitude_deg": -98.27657321733737,
      "height_km": 471.64922003416,
      "semi_major_axis_km": 6848.885735379021,
      "eccentricity": 0.00011521,
      "inclination_deg": 53.1597,
      "raan_deg": 126.7259,
      "arg_perigee_deg": 90.1229,
      "mean_anomaly_deg": 269.9904,
      "mean_motion_rev_day": 15.31697068
    },
    {
      "epoch": "2026-04-24T09:48:49.105152Z",
      "apogee_km": 471.61080423995736,
      "perigee_km": 469.8410580585487,
      "latitude_deg": -2.895686920304523e-05,
      "longitude_deg": 120.70027420278151,
      "height_km": 471.5977001243093,
      "semi_major_axis_km": 6848.862931149253,
      "eccentricity": 0.0001292,
      "inclination_deg": 53.1605,
      "raan_deg": 120.3471,
      "arg_perigee_deg": 88.2565,
      "mean_anomaly_deg": 271.8584,
      "mean_motion_rev_day": 15.31704718
    },
    {
      "epoch": "2026-04-25T17:08:00.674016Z",
      "apogee_km": 471.5098880069245,
      "perigee_km": 469.88671404058186,
      "latitude_deg": 3.1538113615443844e-05,
      "longitude_deg": 3.53695332454718,
      "height_km": 471.80629241537974,
      "semi_major_axis_km": 6848.835301023753,
      "eccentricity": 0.0001185,
      "inclination_deg": 53.1583,
      "raan_deg": 114.2682,
      "arg_perigee_deg": 104.9483,
      "mean_anomaly_deg": 255.165,
      "mean_motion_rev_day": 15.31713987
    },
    {
      "epoch": "2026-04-26T16:37:25.553568Z",
      "apogee_km": 471.80277965105597,
      "perigee_km": 469.64223843033506,
      "latitude_deg": 4.987801271014993e-05,
      "longitude_deg": 5.664292498968704,
      "height_km": 471.772795899777,
      "semi_major_axis_km": 6848.859509040695,
      "eccentricity": 0.00015773,
      "inclination_deg": 53.1611,
      "raan_deg": 109.7139,
      "arg_perigee_deg": 98.0845,
      "mean_anomaly_deg": 262.0336,
      "mean_motion_rev_day": 15.31705866
    },
    {
      "epoch": "2026-04-27T16:06:49.989024Z",
      "apogee_km": 472.0476430220988,
      "perigee_km": 469.42863316929106,
      "latitude_deg": -4.5645868766867237e-07,
      "longitude_deg": 7.79103633325783,
      "height_km": 471.4420105483233,
      "semi_major_axis_km": 6848.875138095695,
      "eccentricity": 0.0001912,
      "inclination_deg": 53.16,
      "raan_deg": 105.1572,
      "arg_perigee_deg": 81.4842,
      "mean_anomaly_deg": 278.6376,
      "mean_motion_rev_day": 15.31700623
    },
    {
      "epoch": "2026-04-28T15:36:15.196896Z",
      "apogee_km": 471.60649786072736,
      "perigee_km": 469.9244074183598,
      "latitude_deg": -8.634967742124796e-07,
      "longitude_deg": 9.916390160566811,
      "height_km": 471.69097812657895,
      "semi_major_axis_km": 6848.902452639543,
      "eccentricity": 0.0001228,
      "inclination_deg": 53.159,
      "raan_deg": 100.6023,
      "arg_perigee_deg": 91.8341,
      "mean_anomaly_deg": 268.2801,
      "mean_motion_rev_day": 15.3169146
    },
    {
      "epoch": "2026-04-29T08:49:49.286784Z",
      "apogee_km": 471.51316902074996,
      "perigee_km": 469.9332739448573,
      "latitude_deg": -4.296387697073787e-05,
      "longitude_deg": 107.47496566408668,
      "height_km": 471.62352849100284,
      "semi_major_axis_km": 6848.860221482803,
      "eccentricity": 0.00011534,
      "inclination_deg": 53.159,
      "raan_deg": 97.2604,
      "arg_perigee_deg": 90.1151,
      "mean_anomaly_deg": 269.9982,
      "mean_motion_rev_day": 15.31705627
    },
    {
      "epoch": "2026-04-30T03:37:21.226368Z",
      "apogee_km": 471.45306856179195,
      "perigee_km": 470.02357130501605,
      "latitude_deg": 4.239803653508887e-05,
      "longitude_deg": -178.82692069831455,
      "height_km": 471.4937719485308,
      "semi_major_axis_km": 6848.875319933404,
      "eccentricity": 0.00010436,
      "inclination_deg": 53.1584,
      "raan_deg": 93.6133,
      "arg_perigee_deg": 78.4288,
      "mean_anomaly_deg": 281.6831,
      "mean_motion_rev_day": 15.31700562
    },
    {
      "epoch": "2026-05-01T03:06:45.100224Z",
      "apogee_km": 471.54583428662045,
      "perigee_km": 469.78308976632434,
      "latitude_deg": 4.345290283263665e-05,
      "longitude_deg": -176.6955934683122,
      "height_km": 471.72283606709,
      "semi_major_axis_km": 6848.801462026472,
      "eccentricity": 0.00012869,
      "inclination_deg": 53.1604,
      "raan_deg": 89.0588,
      "arg_perigee_deg": 100.437,
      "mean_anomaly_deg": 259.6777,
      "mean_motion_rev_day": 15.31725339
    },
    {
      "epoch": "2026-05-03T08:21:24.037632Z",
      "apogee_km": 471.4933923880244,
      "perigee_km": 469.82886049137505,
      "latitude_deg": 3.519853347092491e-05,
      "longitude_deg": 92.12659722256724,
      "height_km": 471.41787861522135,
      "semi_major_axis_km": 6848.798126439699,
      "eccentricity": 0.00012152,
      "inclination_deg": 53.1605,
      "raan_deg": 78.7299,
      "arg_perigee_deg": 80.1714,
      "mean_anomaly_deg": 279.9425,
      "mean_motion_rev_day": 15.31726458
    },
    {
      "epoch": "2026-05-04T06:16:51.523680Z",
      "apogee_km": 471.6111696817379,
      "perigee_km": 469.8642956924177,
      "latitude_deg": 7.727816551289309e-05,
      "longitude_deg": 118.10920140156797,
      "height_km": 471.5663390122294,
      "semi_major_axis_km": 6848.874732687077,
      "eccentricity": 0.00012753,
      "inclination_deg": 53.1614,
      "raan_deg": 74.4774,
      "arg_perigee_deg": 85.3905,
      "mean_anomaly_deg": 274.7243,
      "mean_motion_rev_day": 15.31700759
    }
  ]
}